NORAD_CAT_ID,OBJECT_NAME,OBJECT_TYPE,EPOCH,MEAN_MOTION,ECCENTRICITY,INCLINATION,RA_OF_ASC_NODE,ARG_OF_PERICENTER,MEAN_ANOMALY,BSTAR,MEAN_MOTION_DOT,MEAN_MOTION_DDOT,TLE_LINE0,TLE_LINE1,TLE_LINE2,SEMIMAJOR_AXIS,PERIOD,APOGEE,PERIGEE,DECAYED
53556.0,STARLINK-4505,PAYLOAD,2022-08-24 14:00:01,15.90060807,0.0039717,53.2174,131.3952,56.1656,43.8297,-0.0039052,-0.01288596,0.00047607,0 STARLINK-4505,1 53556U 22101AF  22236.58334491 -.01288596  47607-3 -39052-2 0  9991,2 53556  53.2174 131.3952 0039717  56.1656  43.8297 15.90060807   771,6680.25,90.563,328.646,275.583,0.0
53556.0,STARLINK-4505,PAYLOAD,2022-08-25 04:00:00,15.88569326,0.0033101999999999,53.2173,128.4417,57.5481,141.9534,-0.004499,-0.01344141,0.00050699,0 STARLINK-4505,1 53556U 22101AF  22237.16667824 -.01344141  50699-3 -44990-2 0  9996,2 53556  53.2173 128.4417 0033102  57.5481 141.9534 15.88569326   867,6684.43,90.648,328.422,284.168,0.0
53556.0,STARLINK-4505,PAYLOAD,2022-08-25 12:00:00,15.87711224,0.0029835,53.2175,126.7532,57.8379,248.5239,-0.0048192,-0.01365923,0.00051795,0 STARLINK-4505,1 53556U 22101AF  22237.50001157 -.01365923  51795-3 -48192-2 0  9992,2 53556  53.2175 126.7532 0029835  57.8379 248.5239 15.87711224   912,6686.8380000000025,90.697,328.654,288.753,0.0
53556.0,STARLINK-4505,PAYLOAD,2022-08-25 14:00:01,15.87460656,0.0029070999999999,53.2174,126.3313,57.4177,5.5091,-0.0046421,-0.01297497,0.00047055,0 STARLINK-4505,1 53556U 22101AF  22237.58334491 -.01297497  47055-3 -46421-2 0  9997,2 53556  53.2174 126.3313 0029071  57.4177   5.5091 15.87460656  1309,6687.542,90.711,328.848,289.966,0.0
53556.0,STARLINK-4505,PAYLOAD,2022-08-25 18:00:00,15.87056884,0.0026741,53.2175,125.49,57.8148,238.0101,-0.0049957,-0.01360114,0.00051087,0 STARLINK-4505,1 53556U 22101AF  22237.75001157 -.01360114  51087-3 -49957-2 0  9990,2 53556  53.2175 125.4900 0026741  57.8148 238.0101 15.87056884   954,6688.676,90.734,328.427,292.655,0.0
53556.0,STARLINK-4505,PAYLOAD,2022-08-25 22:00:00,15.86608767,0.0025238,53.2176,124.6494,56.835,111.643,-0.0050091,-0.01329688,0.00048823,0 STARLINK-4505,1 53556U 22101AF  22237.91667824 -.01329688  48823-3 -50091-2 0  9993,2 53556  53.2176 124.6494 0025238  56.8350 111.6430 15.86608767  1301,6689.936,90.76,328.685,294.9170000000001,0.0
53556.0,STARLINK-4505,PAYLOAD,2022-08-26 12:00:00,15.85111853,0.0019419,53.2174,121.7071,57.745,202.9429,-0.0056377,-0.01212261,0.0,0 STARLINK-4505,1 53556U 22101AF  22238.50001157 -.01212261  00000-0 -56377-2 0  9993,2 53556  53.2174 121.7071 0019419  57.7450 202.9429 15.85111853  1073,6694.147,90.845,329.011,303.012,0.0
53556.0,STARLINK-4505,PAYLOAD,2022-08-26 14:00:01,15.84869056,0.001851,53.2172,121.2869,56.9195,319.6144,-0.0054966,-0.01171287,0.0,0 STARLINK-4505,1 53556U 22101AF  22238.58335648 -.01171287  00000-0 -54966-2 0  9990,2 53556  53.2172 121.2869 0018510  56.9195 319.6144 15.84869056  1309,6694.83,90.859,329.088,304.303,0.0
53556.0,STARLINK-4505,PAYLOAD,2022-08-26 22:00:00,15.83994253,0.0015799,53.2172,119.6117,56.3722,62.5253,-0.0056799999999999,-0.01156008,0.0,0 STARLINK-4505,1 53556U 22101AF  22238.91667824 -.01156008  00000-0 -56800-2 0  9994,2 53556  53.2172 119.6117 0015799  56.3722  62.5253 15.83994253  1304,6697.295,90.909,329.741,308.579,0.0
53556.0,STARLINK-4505,PAYLOAD,2022-08-27 14:00:01,15.82283194,0.0008999,53.2175,116.2618,51.3647,269.2546,-0.0064570999999999,-0.01216447,0.0,0 STARLINK-4505,1 53556U 22101AF  22239.58334491 -.01216447  00000-0 -64571-2 0  9997,2 53556  53.2175 116.2618 0008999  51.3647 269.2546 15.82283194  1306,6702.123000000001,91.008,330.019,317.956,0.0
53556.0,STARLINK-4505,PAYLOAD,2022-08-27 20:00:01,15.81636464,0.0007044,53.2176,115.0101,45.5665,259.6228,-0.0067007,-0.01221322,0.0,0 STARLINK-4505,1 53556U 22101AF  22239.83334491 -.01221322  00000-0 -67007-2 0  9990,2 53556  53.2176 115.0101 0007044  45.5665 259.6228 15.81636464  1284,6703.949000000001,91.045,330.537,321.092,0.0
53556.0,STARLINK-4505,PAYLOAD,2022-08-27 22:00:00,15.81393293,0.0006404,53.2176,114.5931,41.0017,18.9233,-0.006502,-0.01176324,0.0,0 STARLINK-4505,1 53556U 22101AF  22239.91667824 -.01176324  00000-0 -65020-2 0  9992,2 53556  53.2176 114.5931 0006404  41.0017  18.9233 15.81393293  1305,6704.637,91.059,330.795,322.208,0.0
53556.0,STARLINK-4505,PAYLOAD,2022-08-28 14:00:01,15.79673408,0.0003008,53.2172,111.2559,12.7869,242.6043,-0.0072286,-0.01201182,0.0,0 STARLINK-4505,1 53556U 22101AF  22240.58334491 -.01201182  00000-0 -72286-2 0  9991,2 53556  53.2172 111.2559 0003008  12.7869 242.6043 15.79673408  1309,6709.502,91.158,333.385,329.349,0.0
53556.0,STARLINK-4505,PAYLOAD,2022-08-28 20:00:01,15.79018026,0.0002697,53.2174,110.0092,12.6593,224.9584,-0.0073986999999999,-0.01193704,0.0,0 STARLINK-4505,1 53556U 22101AF  22240.83334491 -.01193704  00000-0 -73987-2 0  9998,2 53556  53.2174 110.0092 0002697  12.6593 224.9584 15.79018026  1443,6711.359,91.196,335.034,331.414,0.0
53556.0,STARLINK-4505,PAYLOAD,2022-08-28 22:00:00,15.78804401,0.0002782,53.2173,109.5937,9.4349,342.126,-0.007506,-0.0119867999999999,0.0,0 STARLINK-4505,1 53556U 22101AF  22240.91667824 -.01198680  00000-0 -75060-2 0  9998,2 53556  53.2173 109.5937 0002782   9.4349 342.1260 15.78804401  1309,6711.964,91.208,335.696,331.962,0.0
53556.0,STARLINK-4505,PAYLOAD,2022-08-29 12:00:00,15.77286506,0.0003302,53.2175,106.6847,346.1804,81.1706,-0.0080554,-0.01200947,0.0,0 STARLINK-4505,1 53556U 22101AF  22241.50001157 -.01200947  00000-0 -80554-2 0  9999,2 53556  53.2175 106.6847 0003302 346.1804  81.1706 15.77286506  1556,6716.27,91.296,340.352,335.917,0.0
53556.0,STARLINK-4505,PAYLOAD,2022-08-29 14:00:01,15.77068008,0.000332,53.2175,106.2694,357.8989,182.8755,-0.0081058,-0.01197139,0.0,0 STARLINK-4505,1 53556U 22101AF  22241.58334491 -.01197139  00000-0 -81058-2 0  9995,2 53556  53.2175 106.2694 0003320 357.8989 182.8755 15.77068008  1306,6716.89,91.309,340.985,336.525,0.0
53556.0,STARLINK-4505,PAYLOAD,2022-08-29 22:00:00,15.76188834,0.0003677,53.2175,104.6137,333.2889,300.5298,-0.0082845,-0.01178877,0.0,0 STARLINK-4505,1 53556U 22101AF  22241.91667824 -.01178877  00000-0 -82845-2 0  9994,2 53556  53.2175 104.6137 0003677 333.2889 300.5298 15.76188834  1302,6719.387,91.36,343.723,338.782,0.0
53556.0,STARLINK-4505,PAYLOAD,2022-08-30 06:00:00,15.7532927,6.4e-05,53.2172,102.9572,24.0943,341.7209,-0.0087131,-0.01190182,0.0,0 STARLINK-4505,1 53556U 22101AF  22242.25001157 -.01190182  00000-0 -87131-2 0  9999,2 53556  53.2172 102.9572 0000640  24.0943 341.7209 15.75329270  1664,6721.831,91.409,344.12699999999984,343.266,0.0
53556.0,STARLINK-4505,PAYLOAD,2022-08-30 14:00:01,15.74486084,0.0001079,53.2168,101.3027,42.3396,54.4041,-0.0090062999999999,-0.0118617999999999,0.0,0 STARLINK-4505,1 53556U 22101AF  22242.58334491 -.01186180  00000-0 -90063-2 0  9996,2 53556  53.2168 101.3027 0001079  42.3396  54.4041 15.74486084  1308,6724.231,91.458,346.82199999999995,345.37,0.0
53556.0,STARLINK-4505,PAYLOAD,2022-08-30 20:00:01,15.73668694,0.0001227,53.2174,100.065,39.3145,35.0038,-0.0042809,-0.00573622,0.0,0 STARLINK-4505,1 53556U 22101AF  22242.83334491 -.00573622  00000-0 -42809-2 0  9999,2 53556  53.2174 100.0650 0001227  39.3145  35.0038 15.73668694  1765,6726.559,91.506,349.25,347.599,0.0
53556.0,STARLINK-4505,PAYLOAD,2022-08-30 22:00:00,15.73516819,0.0001056,53.2172,99.6534,61.9177,124.7623,-0.0032032,-0.00433605,0.0,0 STARLINK-4505,1 53556U 22101AF  22242.91667824 -.00433605  00000-0 -32032-2 0  9990,2 53556  53.2172  99.6534 0001056  61.9177 124.7623 15.73516819  1300,6726.9919999999975,91.515,349.56699999999995,348.147,0.0
53556.0,STARLINK-4505,PAYLOAD,2022-08-31 12:00:00,15.7320543,0.0001203,53.2159,96.7675,70.7213,181.8303,0.00064805,0.00091345,0.0,0 STARLINK-4505,1 53556U 22101AF  22243.50001157  .00091345  00000-0  64805-3 0  9990,2 53556  53.2159  96.7675 0001203  70.7213 181.8303 15.73205430  1866,6727.88,91.533,350.55400000000014,348.935,0.0
53556.0,STARLINK-4505,PAYLOAD,2022-08-31 14:00:01,15.73223887,0.0001246,53.2161,96.3541,75.1466,289.641,0.00058184,0.00081921,0.0,0 STARLINK-4505,1 53556U 22101AF  22243.58334491  .00081921  00000-0  58184-3 0  9990,2 53556  53.2161  96.3541 0001246  75.1466 289.6410 15.73223887  1304,6727.8269999999975,91.532,350.53,348.85400000000016,0.0
53556.0,STARLINK-4505,PAYLOAD,2022-08-31 20:00:01,15.73272129,0.0001284999999999,53.2156,95.12,64.2016,277.2804,-0.00094486,-0.00131576,0.0,0 STARLINK-4505,1 53556U 22101AF  22243.83334491 -.00131576  00000-0 -94486-3 0  9997,2 53556  53.2156  95.1200 0001285  64.2016 277.2804 15.73272129  1910,6727.69,91.529,350.4190000000001,348.69,0.0
53556.0,STARLINK-4505,PAYLOAD,2022-08-31 22:00:00,15.73248315,0.0001326,53.2156,94.7081,61.8071,31.9244,-0.00087478,-0.00121879,0.0,0 STARLINK-4505,1 53556U 22101AF  22243.91667824 -.00121879  00000-0 -87478-3 0  9993,2 53556  53.2156  94.7081 0001326  61.8071  31.9244 15.73248315  1308,6727.757,91.53,350.515,348.73,0.0
53556.0,STARLINK-4505,PAYLOAD,2022-09-01 04:00:01,15.73186744,0.0001250999999999,53.215,93.4703,60.3627,10.1525,-0.00033188,-0.00046911,0.0,0 STARLINK-4505,1 53556U 22101AF  22244.16668981 -.00046911  00000-0 -33188-3 0  9998,2 53556  53.2150  93.4703 0001251  60.3627  10.1525 15.73186744  1978,6727.933000000001,91.534,350.64,348.956,0.0
53556.0,STARLINK-4505,PAYLOAD,2022-09-01 12:00:00,15.73140336,0.0001188,53.2153,91.8191,74.5336,84.8102,0.0005771,0.00080948,0.0,0 STARLINK-4505,1 53556U 22101AF  22244.50001157  .00080948  00000-0  57710-3 0  9995,2 53556  53.2153  91.8191 0001188  74.5336  84.8102 15.73140336  2020,6728.065,91.537,350.73,349.131,0.0
53556.0,STARLINK-4505,PAYLOAD,2022-09-01 14:00:01,15.73158874,0.0001210999999999,53.2157,91.4069,75.07600000000002,196.5401,0.00036493,0.00050815,0.0,0 STARLINK-4505,1 53556U 22101AF  22244.58335648  .00050815  00000-0  36493-3 0  9993,2 53556  53.2157  91.4069 0001211  75.0760 196.5401 15.73158874  1307,6728.012,91.536,350.69199999999995,349.06300000000016,0.0
